{
    "links": {
        "self": "http://www.neowsapp.com/rest/v1/neo/3805267?api_key=iIulBulltgU6a56xZRHN4H3l9WmuAYTsLGpBGhQ2"
    },
    "id": "3805267",
    "neo_reference_id": "3805267",
    "name": "(2018 HQ)",
    "designation": "2018 HQ",
    "nasa_jpl_url": "http://ssd.jpl.nasa.gov/sbdb.cgi?sstr=3805267",
    "absolute_magnitude_h": 21.5,
    "estimated_diameter": {
        "kilometers": {
            "estimated_diameter_min": 0.1332155667,
            "estimated_diameter_max": 0.2978790628
        },
        "meters": {
            "estimated_diameter_min": 133.2155666981,
            "estimated_diameter_max": 297.8790627982
        },
        "miles": {
            "estimated_diameter_min": 0.0827762899,
            "estimated_diameter_max": 0.1850934111
        },
        "feet": {
            "estimated_diameter_min": 437.0589598459,
            "estimated_diameter_max": 977.2935443908
        }
    },
    "is_potentially_hazardous_asteroid": true,
    "close_approach_data": [
        {
            "close_approach_date": "1903-03-23",
            "close_approach_date_full": "1903-Mar-23 20:06",
            "epoch_date_close_approach": -2107310040000,
            "relative_velocity": {
                "kilometers_per_second": "13.8591164287",
                "kilometers_per_hour": "49892.8191434168",
                "miles_per_hour": "31001.4575394192"
            },
            "miss_distance": {
                "astronomical": "0.0045144921",
                "lunar": "1.7561374269",
                "kilometers": "675358.402291827",
                "miles": "419648.2518361326"
            },
            "orbiting_body": "Mars"
        },
        {
            "close_approach_date": "1908-04-22",
            "close_approach_date_full": "1908-Apr-22 11:06",
            "epoch_date_close_approach": -1946897640000,
            "relative_velocity": {
                "kilometers_per_second": "25.0226991075",
                "kilometers_per_hour": "90081.7167869327",
                "miles_per_hour": "55973.2756335249"
            },
            "miss_distance": {
                "astronomical": "0.3263432556",
                "lunar": "126.9475264284",
                "kilometers": "48820255.926625572",
                "miles": "30335500.3569620136"
            },
            "orbiting_body": "Earth"
        },
        {
            "close_approach_date": "2018-05-23",
            "close_approach_date_full": "2018-May-23 08:02",
            "epoch_date_close_approach": 1527062520000,
            "relative_velocity": {
                "kilometers_per_second": "11.579090077",
                "kilometers_per_hour": "41684.7242771964",
                "miles_per_hour": "25901.2665932391"
            },
            "miss_distance": {
                "astronomical": "0.2420578072",
                "lunar": "94.1604870008",
                "kilometers": "36211332.373990664",
                "miles": "22500678.5668686032"
            },
            "orbiting_body": "Earth"
        }
    ],
    "orbital_data": {
        "orbit_id": "7",
        "orbit_determination_date": "2018-05-10 06:43:32",
        "first_observation_date": "2018-04-19",
        "last_observation_date": "2018-05-09",
        "data_arc_in_days": 20,
        "observations_used": 40,
        "orbit_uncertainty": "8",
        "minimum_orbit_intersection": ".0145458",
        "jupiter_tisserand_invariant": "3.803",
        "epoch_osculation": "2458235.5",
        "eccentricity": ".5794077853054843",
        "semi_major_axis": "1.813955008724756",
        "inclination": "13.78159204217789",
        "ascending_node_longitude": "9.118173202561776",
        "orbital_period": "892.3560933853256",
        "perihelion_distance": ".7629353544757547",
        "perihelion_argument": "294.8865575526001",
        "aphelion_distance": "2.864974662973757",
        "perihelion_time": "2458308.876086766720",
        "mean_anomaly": "330.3981499853861",
        "mean_motion": ".403426392970849",
        "equinox": "J2000",
        "orbit_class": {
            "orbit_class_type": "APO",
            "orbit_class_description": "Near-Earth asteroid orbits which cross the Earth’s orbit similar to that of 1862 Apollo",
            "orbit_class_range": "a (semi-major axis) > 1.0 AU; q (perihelion) < 1.017 AU"
        }
    },
    "is_sentry_object": false
}